IRIDIUM 155             
1 43573U 18061E   25232.89715843  .00000041  00000+0  75627-5 0  9993
2 43573  86.4026 182.1553 0002158  92.4347 267.7096 14.34217772370319
IRIDIUM 154             
1 43574U 18061F   25232.87813054  .00000011  00000+0 -30439-5 0  9995
2 43574  86.4030 182.2817 0002281  85.5058 274.6398 14.34217832370362
IRIDIUM 163             
1 43575U 18061G   25232.92887046  .00000003  00000+0 -60778-5 0  9994
2 43575  86.4030 182.1857 0002001  83.4286 276.7137 14.34217742370348
IRIDIUM 156             
1 43576U 18061H   25232.90350109  .00000003  00000+0 -59197-5 0  9991
2 43576  86.4030 182.2032 0002168  93.8330 266.3113 14.34217648370337
IRIDIUM 164             
1 43577U 18061J   25232.88447361  .00000002  00000+0 -63493-5 0  9999
2 43577  86.4032 182.2466 0002370  85.8277 274.3190 14.34217640370377
IRIDIUM 159             
1 43578U 18061K   25232.92252894  .00000066  00000+0  16443-4 0  9991
2 43578  86.4027 182.1737 0002345  80.0121 280.1340 14.34217998370344
IRIDIUM 180             
1 43922U 19002A   25232.78248751  .00000008  00000+0 -41364-5 0  9999
2 43922  86.3971 119.2070 0001928  83.5095 276.6321 14.34217593345936
IRIDIUM 176             
1 43923U 19002B   25232.94563283  .00000686  00000+0  10496-3 0  9999
2 43923  86.6096 119.1260 0001941 101.2106 258.9329 14.72257163355070
IRIDIUM 168             
1 43924U 19002C   25232.77614516  .00000052  00000+0  11339-4 0  9992
2 43924  86.3974 119.2789 0002132  84.9155 275.2284 14.34217794345912
IRIDIUM 173             
1 43925U 19002D   25232.76345985  .00000026  00000+0  20891-5 0  9998
2 43925  86.3969 119.1854 0001935  85.8775 274.2642 14.34217546345896
IRIDIUM 169             
1 43926U 19002E   25232.84086846  .00000264  00000+0  79636-4 0  9990
2 43926  86.4285 150.7543 0001498 120.4410 239.6937 14.38610170347046
IRIDIUM 172             
1 43927U 19002F   25232.75711407  .00000204  00000+0  65917-4 0  9990
2 43927  86.3970 119.1949 0002094  77.4101 282.7329 14.34218902345907
IRIDIUM 175             
1 43928U 19002G   25232.80477332  .00000277  00000+0  39981-4 0  9995
2 43928  86.1451  68.0018 0002912 102.7341 257.4201 14.72243843355044
IRIDIUM 171             
1 43929U 19002H   25232.94739618  .00000019  00000+0 -38738-6 0  9995
2 43929  86.3979 119.3886 0002414  88.9754 271.1718 14.34217442345921
IRIDIUM 170             
1 43930U 19002J   25232.74789790  .00000577  00000+0  87637-4 0  9999
2 43930  86.6097 119.2128 0002314  90.7678 269.3804 14.72244425355053
IRIDIUM 167             
1 43931U 19002K   25232.94105313  .00000049  00000+0  10267-4 0  9994
2 43931  86.3972 119.1381 0002342  95.9317 264.2146 14.34217718345922
IRIDIUM 181             
1 56726U 23068S   25232.91019011  .00000182  00000+0  48173-4 0  9998
2 56726  86.4566 182.2214 0002970  85.2961 274.8579 14.43306165119121
IRIDIUM 177             
1 56727U 23068T   25232.90104274  .00001228  00000+0  15809-3 0  9995
2 56727  86.1958 111.4197 0002501  91.1270 269.0237 14.80229925121946
IRIDIUM 174             
1 56728U 23068U   25232.73554837  .00000724  00000+0  11094-3 0  9993
2 56728  86.6103 119.3350 0001848  83.1718 276.9709 14.72257730121816
IRIDIUM 178             
1 56729U 23068V   25232.89013743  .00001128  00000+0  14498-3 0  9997
2 56729  86.6603 150.8493 0002361  86.2899 273.8593 14.80230148121949
IRIDIUM 179             
1 56730U 23068W   25232.81717189  .00001121  00000+0  14405-3 0  9997
2 56730  86.6851 158.9438 0002430  91.6443 268.5057 14.80239722121938
